CCSDS_OMM_VERS = 2.0
CREATION_DATE  = 
ORIGINATOR     = 

OBJECT_NAME    = ISS (ZARYA)
OBJECT_ID      = 1998-067A
CENTER_NAME    = EARTH
REF_FRAME      = TEME
TIME_SYSTEM    = UTC
MEAN_ELEMENT_THEORY = SGP/SGP4

EPOCH          = 2026-03-15T04:37:08.870592
MEAN_MOTION    = 15.48288531
ECCENTRICITY   = .00063636
INCLINATION    = 51.6330
RA_OF_ASC_NODE = 45.1519
ARG_OF_PERICENTER = 192.7288
MEAN_ANOMALY   = 167.3540

EPHEMERIS_TYPE = 0
CLASSIFICATION_TYPE = U
NORAD_CAT_ID   = 25544
ELEMENT_SET_NO = 999
REV_AT_EPOCH   = 55718
BSTAR          = .1887181E-3
MEAN_MOTION_DOT = .9711E-4
MEAN_MOTION_DDOT = 0

CCSDS_OMM_VERS = 2.0
CREATION_DATE  = 
ORIGINATOR     = 

OBJECT_NAME    = POISK
OBJECT_ID      = 2009-060A
CENTER_NAME    = EARTH
REF_FRAME      = TEME
TIME_SYSTEM    = UTC
MEAN_ELEMENT_THEORY = SGP/SGP4

EPOCH          = 2026-03-15T04:37:08.870592
MEAN_MOTION    = 15.48288531
ECCENTRICITY   = .00063636
INCLINATION    = 51.6330
RA_OF_ASC_NODE = 45.1519
ARG_OF_PERICENTER = 192.7288
MEAN_ANOMALY   = 167.3540

EPHEMERIS_TYPE = 0
CLASSIFICATION_TYPE = U
NORAD_CAT_ID   = 36086
ELEMENT_SET_NO = 999
REV_AT_EPOCH   = 55444
BSTAR          = .1887181E-3
MEAN_MOTION_DOT = .9711E-4
MEAN_MOTION_DDOT = 0

CCSDS_OMM_VERS = 2.0
CREATION_DATE  = 
ORIGINATOR     = 

OBJECT_NAME    = CSS (TIANHE)
OBJECT_ID      = 2021-035A
CENTER_NAME    = EARTH
REF_FRAME      = TEME
TIME_SYSTEM    = UTC
MEAN_ELEMENT_THEORY = SGP/SGP4

EPOCH          = 2026-03-14T00:03:53.258400
MEAN_MOTION    = 15.60904690
ECCENTRICITY   = .0006689
INCLINATION    = 41.4663
RA_OF_ASC_NODE = 181.9138
ARG_OF_PERICENTER = 299.3968
MEAN_ANOMALY   = 60.6202

EPHEMERIS_TYPE = 0
CLASSIFICATION_TYPE = U
NORAD_CAT_ID   = 48274
ELEMENT_SET_NO = 999
REV_AT_EPOCH   = 27828
BSTAR          = .34787289E-3
MEAN_MOTION_DOT = .29757E-3
MEAN_MOTION_DDOT = 0

CCSDS_OMM_VERS = 2.0
CREATION_DATE  = 
ORIGINATOR     = 

OBJECT_NAME    = ISS (NAUKA)
OBJECT_ID      = 2021-066A
CENTER_NAME    = EARTH
REF_FRAME      = TEME
TIME_SYSTEM    = UTC
MEAN_ELEMENT_THEORY = SGP/SGP4

EPOCH          = 2026-03-15T04:37:08.870592
MEAN_MOTION    = 15.48288531
ECCENTRICITY   = .00063636
INCLINATION    = 51.6330
RA_OF_ASC_NODE = 45.1519
ARG_OF_PERICENTER = 192.7288
MEAN_ANOMALY   = 167.3540

EPHEMERIS_TYPE = 0
CLASSIFICATION_TYPE = U
NORAD_CAT_ID   = 49044
ELEMENT_SET_NO = 999
REV_AT_EPOCH   = 55445
BSTAR          = .1887181E-3
MEAN_MOTION_DOT = .9711E-4
MEAN_MOTION_DDOT = 0

CCSDS_OMM_VERS = 2.0
CREATION_DATE  = 
ORIGINATOR     = 

OBJECT_NAME    = FREGAT DEB
OBJECT_ID      = 2011-037PF
CENTER_NAME    = EARTH
REF_FRAME      = TEME
TIME_SYSTEM    = UTC
MEAN_ELEMENT_THEORY = SGP/SGP4

EPOCH          = 2026-03-12T23:42:33.297696
MEAN_MOTION    = 12.40314724
ECCENTRICITY   = .09615585
INCLINATION    = 51.6525
RA_OF_ASC_NODE = 290.8604
ARG_OF_PERICENTER = 66.9712
MEAN_ANOMALY   = 302.9578

EPHEMERIS_TYPE = 0
CLASSIFICATION_TYPE = U
NORAD_CAT_ID   = 49271
ELEMENT_SET_NO = 999
REV_AT_EPOCH   = 21310
BSTAR          = .27402908E-1
MEAN_MOTION_DOT = .19193E-3
MEAN_MOTION_DDOT = 0

CCSDS_OMM_VERS = 2.0
CREATION_DATE  = 
ORIGINATOR     = 

OBJECT_NAME    = CSS (WENTIAN)
OBJECT_ID      = 2022-085A
CENTER_NAME    = EARTH
REF_FRAME      = TEME
TIME_SYSTEM    = UTC
MEAN_ELEMENT_THEORY = SGP/SGP4

EPOCH          = 2026-03-14T00:03:53.258400
MEAN_MOTION    = 15.60904690
ECCENTRICITY   = .0006689
INCLINATION    = 41.4663
RA_OF_ASC_NODE = 181.9138
ARG_OF_PERICENTER = 299.3968
MEAN_ANOMALY   = 60.6202

EPHEMERIS_TYPE = 0
CLASSIFICATION_TYPE = U
NORAD_CAT_ID   = 53239
ELEMENT_SET_NO = 999
REV_AT_EPOCH   = 27561
BSTAR          = .34787289E-3
MEAN_MOTION_DOT = .29757E-3
MEAN_MOTION_DDOT = 0

CCSDS_OMM_VERS = 2.0
CREATION_DATE  = 
ORIGINATOR     = 

OBJECT_NAME    = CSS (MENGTIAN)
OBJECT_ID      = 2022-143A
CENTER_NAME    = EARTH
REF_FRAME      = TEME
TIME_SYSTEM    = UTC
MEAN_ELEMENT_THEORY = SGP/SGP4

EPOCH          = 2026-03-14T00:03:53.258400
MEAN_MOTION    = 15.60904690
ECCENTRICITY   = .0006689
INCLINATION    = 41.4663
RA_OF_ASC_NODE = 181.9138
ARG_OF_PERICENTER = 299.3968
MEAN_ANOMALY   = 60.6202

EPHEMERIS_TYPE = 0
CLASSIFICATION_TYPE = U
NORAD_CAT_ID   = 54216
ELEMENT_SET_NO = 999
REV_AT_EPOCH   = 27558
BSTAR          = .34787289E-3
MEAN_MOTION_DOT = .29757E-3
MEAN_MOTION_DDOT = 0

CCSDS_OMM_VERS = 2.0
CREATION_DATE  = 
ORIGINATOR     = 

OBJECT_NAME    = PROGRESS-MS 31
OBJECT_ID      = 2025-146A
CENTER_NAME    = EARTH
REF_FRAME      = TEME
TIME_SYSTEM    = UTC
MEAN_ELEMENT_THEORY = SGP/SGP4

EPOCH          = 2026-03-15T04:37:08.870592
MEAN_MOTION    = 15.48288531
ECCENTRICITY   = .00063636
INCLINATION    = 51.6330
RA_OF_ASC_NODE = 45.1519
ARG_OF_PERICENTER = 192.7288
MEAN_ANOMALY   = 167.3540

EPHEMERIS_TYPE = 0
CLASSIFICATION_TYPE = U
NORAD_CAT_ID   = 64751
ELEMENT_SET_NO = 999
REV_AT_EPOCH   = 55446
BSTAR          = .1887181E-3
MEAN_MOTION_DOT = .9711E-4
MEAN_MOTION_DDOT = 0

CCSDS_OMM_VERS = 2.0
CREATION_DATE  = 
ORIGINATOR     = 

OBJECT_NAME    = TIANZHOU-9
OBJECT_ID      = 2025-149A
CENTER_NAME    = EARTH
REF_FRAME      = TEME
TIME_SYSTEM    = UTC
MEAN_ELEMENT_THEORY = SGP/SGP4

EPOCH          = 2026-03-14T00:03:53.258400
MEAN_MOTION    = 15.60904690
ECCENTRICITY   = .0006689
INCLINATION    = 41.4663
RA_OF_ASC_NODE = 181.9138
ARG_OF_PERICENTER = 299.3968
MEAN_ANOMALY   = 60.6202

EPHEMERIS_TYPE = 0
CLASSIFICATION_TYPE = U
NORAD_CAT_ID   = 64786
ELEMENT_SET_NO = 999
REV_AT_EPOCH   = 27559
BSTAR          = .34787289E-3
MEAN_MOTION_DOT = .29757E-3
MEAN_MOTION_DDOT = 0

CCSDS_OMM_VERS = 2.0
CREATION_DATE  = 
ORIGINATOR     = 

OBJECT_NAME    = PROGRESS-MS 32
OBJECT_ID      = 2025-204A
CENTER_NAME    = EARTH
REF_FRAME      = TEME
TIME_SYSTEM    = UTC
MEAN_ELEMENT_THEORY = SGP/SGP4

EPOCH          = 2026-03-15T04:37:08.870592
MEAN_MOTION    = 15.48288531
ECCENTRICITY   = .00063636
INCLINATION    = 51.6330
RA_OF_ASC_NODE = 45.1519
ARG_OF_PERICENTER = 192.7288
MEAN_ANOMALY   = 167.3540

EPHEMERIS_TYPE = 0
CLASSIFICATION_TYPE = U
NORAD_CAT_ID   = 65586
ELEMENT_SET_NO = 999
REV_AT_EPOCH   = 55450
BSTAR          = .1887181E-3
MEAN_MOTION_DOT = .9711E-4
MEAN_MOTION_DDOT = 0

CCSDS_OMM_VERS = 2.0
CREATION_DATE  = 
ORIGINATOR     = 

OBJECT_NAME    = CYGNUS NG-23
OBJECT_ID      = 2025-208A
CENTER_NAME    = EARTH
REF_FRAME      = TEME
TIME_SYSTEM    = UTC
MEAN_ELEMENT_THEORY = SGP/SGP4

EPOCH          = 2026-03-14T09:59:46.912416
MEAN_MOTION    = 15.49977850
ECCENTRICITY   = .00077822
INCLINATION    = 51.6322
RA_OF_ASC_NODE = 48.9706
ARG_OF_PERICENTER = 192.9507
MEAN_ANOMALY   = 167.1283

EPHEMERIS_TYPE = 0
CLASSIFICATION_TYPE = U
NORAD_CAT_ID   = 65616
ELEMENT_SET_NO = 999
REV_AT_EPOCH   = 32
BSTAR          = .24568708E-3
MEAN_MOTION_DOT = .1359E-3
MEAN_MOTION_DDOT = 0

CCSDS_OMM_VERS = 2.0
CREATION_DATE  = 
ORIGINATOR     = 

OBJECT_NAME    = YOTSUBA-KULOVER
OBJECT_ID      = 1998-067XN
CENTER_NAME    = EARTH
REF_FRAME      = TEME
TIME_SYSTEM    = UTC
MEAN_ELEMENT_THEORY = SGP/SGP4

EPOCH          = 2026-03-15T03:19:40.619712
MEAN_MOTION    = 15.83248054
ECCENTRICITY   = .00049257
INCLINATION    = 51.6207
RA_OF_ASC_NODE = 28.9755
ARG_OF_PERICENTER = 106.6018
MEAN_ANOMALY   = 253.5526

EPHEMERIS_TYPE = 0
CLASSIFICATION_TYPE = U
NORAD_CAT_ID   = 65941
ELEMENT_SET_NO = 999
REV_AT_EPOCH   = 2436
BSTAR          = .12361115E-2
MEAN_MOTION_DOT = .281493E-2
MEAN_MOTION_DDOT = 0

